{"type": "FeatureCollection", "features": [ {"type": "Feature", "properties": {"norad_id": 29795, "name": "FENGYUN 1C DEB", "group": "fengyun-1c-debris", "lat": -64.2028403229364, "lon": -69.68184857907032, "alt_km": 845.0219388885826, "timestamp": "2025-12-26T08:37:54.851693+00:00", "meta": {"OBJECT_NAME": "FENGYUN 1C DEB", "OBJECT_ID": "1999-025CM", "EPOCH": "2025-12-24T19:59:46.682016", "MEAN_MOTION": 13.92915318, "ECCENTRICITY": 0.0111225, "INCLINATION": 98.8709, "RA_OF_ASC_NODE": 127.7057, "ARG_OF_PERICENTER": 242.788, "MEAN_ANOMALY": 272.3224, "EPHEMERIS_TYPE": 0, "CLASSIFICATION_TYPE": "U", "NORAD_CAT_ID": 29795, "ELEMENT_SET_NO": 999, "REV_AT_EPOCH": 96233, "BSTAR": 0.00022846706, "MEAN_MOTION_DOT": 2.69e-06, "MEAN_MOTION_DDOT": 0}, "tle": {"line1": "1 29795U 99025CM  25358.83317919  .00000269  00000+0  22847-3 0  9993", "line2": "2 29795  98.8709 127.7057 0111225 242.7880 272.3224 13.92915318962334"}}, "geometry": {"type": "Point", "coordinates": [-69.68184857907032, -64.2028403229364]}}, {"type": "Feature", "properties": {"norad_id": 29796, "name": "FENGYUN 1C DEB", "group": "fengyun-1c-debris", "lat": 76.23784177031818, "lon": -88.34100588504846, "alt_km": 867.5755244108286, "timestamp": "2025-12-26T08:37:54.851704+00:00", "meta": {"OBJECT_NAME": "FENGYUN 1C DEB", "OBJECT_ID": "1999-025CN", "EPOCH": "2025-12-26T03:10:39.410112", "MEAN_MOTION": 14.12367293, "ECCENTRICITY": 0.005252, "INCLINATION": 98.8635, "RA_OF_ASC_NODE": 51.858, "ARG_OF_PERICENTER": 229.7155, "MEAN_ANOMALY": 156.4271, "EPHEMERIS_TYPE": 0, "CLASSIFICATION_TYPE": "U", "NORAD_CAT_ID": 29796, "ELEMENT_SET_NO": 999, "REV_AT_EPOCH": 97250, "BSTAR": 0.00060889, "MEAN_MOTION_DOT": 1.092e-05, "MEAN_MOTION_DDOT": 0}, "tle": {"line1": "1 29796U 99025CN  25360.13240058  .00001092  00000+0  60889-3 0  9992", "line2": "2 29796  98.8635  51.8580 0052520 229.7155 156.4271 14.12367293972503"}}, "geometry": {"type": "Point", "coordinates": [-88.34100588504846, 76.23784177031818]}}, {"type": "Feature", "properties": {"norad_id": 29798, "name": "FENGYUN 1C DEB", "group": "fengyun-1c-debris", "lat": -17.308212043802047, "lon": -118.45162601558563, "alt_km": 835.2408783826622, "timestamp": "2025-12-26T08:37:54.851714+00:00", "meta": {"OBJECT_NAME": "FENGYUN 1C DEB", "OBJECT_ID": "1999-025CQ", "EPOCH": "2025-12-26T02:40:36.858144", "MEAN_MOTION": 13.99627522, "ECCENTRICITY": 0.0112143, "INCLINATION": 99.2953, "RA_OF_ASC_NODE": 64.2219, "ARG_OF_PERICENTER": 236.0655, "MEAN_ANOMALY": 152.6125, "EPHEMERIS_TYPE": 0, "CLASSIFICATION_TYPE": "U", "NORAD_CAT_ID": 29798, "ELEMENT_SET_NO": 999, "REV_AT_EPOCH": 96112, "BSTAR": 0.0014998, "MEAN_MOTION_DOT": 2.267e-05, "MEAN_MOTION_DDOT": 0}, "tle": {"line1": "1 29798U 99025CQ  25360.11153771  .00002267  00000+0  14998-2 0  9991", "line2": "2 29798  99.2953  64.2219 0112143 236.0655 152.6125 13.99627522961124"}}, "geometry": {"type": "Point", "coordinates": [-118.45162601558563, -17.308212043802047]}}, {"type": "Feature", "properties": {"norad_id": 29800, "name": "FENGYUN 1C DEB", "group": "fengyun-1c-debris", "lat": -42.43582214224581, "lon": 28.335422444363218, "alt_km": 963.9594421102101, "timestamp": "2025-12-26T08:37:54.851724+00:00", "meta": {"OBJECT_NAME": "FENGYUN 1C DEB", "OBJECT_ID": "1999-025CS", "EPOCH": "2025-12-25T12:58:14.687328", "MEAN_MOTION": 13.98631422, "ECCENTRICITY": 0.0133875, "INCLINATION": 98.291, "RA_OF_ASC_NODE": 19.933, "ARG_OF_PERICENTER": 191.628, "MEAN_ANOMALY": 321.744, "EPHEMERIS_TYPE": 0, "CLASSIFICATION_TYPE": "U", "NORAD_CAT_ID": 29800, "ELEMENT_SET_NO": 999, "REV_AT_EPOCH": 95755, "BSTAR": 0.0014898, "MEAN_MOTION_DOT": 2.271e-05, "MEAN_MOTION_DDOT": 0}, "tle": {"line1": "1 29800U 99025CS  25359.54044777  .00002271  00000+0  14898-2 0  9999", "line2": "2 29800  98.2910  19.9330 0133875 191.6280 321.7440 13.98631422957550"}}, "geometry": {"type": "Point", "coordinates": [28.335422444363218, -42.43582214224581]}}, {"type": "Feature", "properties": {"norad_id": 29801, "name": "FENGYUN 1C DEB", "group": "fengyun-1c-debris", "lat": -81.08186837132641, "lon": 1.0417967730508153, "alt_km": 724.0939522597946, "timestamp": "2025-12-26T08:37:54.851734+00:00", "meta": {"OBJECT_NAME": "FENGYUN 1C DEB", "OBJECT_ID": "1999-025CT", "EPOCH": "2025-12-25T16:35:24.198720", "MEAN_MOTION": 14.35910873, "ECCENTRICITY": 0.01029413, "INCLINATION": 98.7951, "RA_OF_ASC_NODE": 260.9773, "ARG_OF_PERICENTER": 228.7859, "MEAN_ANOMALY": 185.7528, "EPHEMERIS_TYPE": 0, "CLASSIFICATION_TYPE": "U", "NORAD_CAT_ID": 29801, "ELEMENT_SET_NO": 999, "REV_AT_EPOCH": 99127, "BSTAR": 0.00017227, "MEAN_MOTION_DOT": 4.82e-06, "MEAN_MOTION_DDOT": 0}, "tle": {"line1": "1 29801U 99025CT  25359.69125230  .00000482  00000+0  17227-3 0  9992", "line2": "2 29801  98.7951 260.9773 0102941 228.7859 185.7528 14.35910873991278"}}, "geometry": {"type": "Point", "coordinates": [1.0417967730508153, -81.08186837132641]}}, {"type": "Feature", "properties": {"norad_id": 29802, "name": "FENGYUN 1C DEB", "group": "fengyun-1c-debris", "lat": 66.7777031209144, "lon": -49.230882120364264, "alt_km": 704.4193381996338, "timestamp": "2025-12-26T08:37:54.851745+00:00", "meta": {"OBJECT_NAME": "FENGYUN 1C DEB", "OBJECT_ID": "1999-025CU", "EPOCH": "2025-12-25T06:09:17.450208", "MEAN_MOTION": 14.62634509, "ECCENTRICITY": 0.0037452, "INCLINATION": 98.6193, "RA_OF_ASC_NODE": 108.9153, "ARG_OF_PERICENTER": 299.3166, "MEAN_ANOMALY": 126.6642, "EPHEMERIS_TYPE": 0, "CLASSIFICATION_TYPE": "U", "NORAD_CAT_ID": 29802, "ELEMENT_SET_NO": 999, "REV_AT_EPOCH": 98656, "BSTAR": 0.0029616, "MEAN_MOTION_DOT": 0.00015187, "MEAN_MOTION_DDOT": 0}, "tle": {"line1": "1 29802U 99025CU  25359.25645197  .00015187  00000+0  29616-2 0  9996", "line2": "2 29802  98.6193 108.9153 0037452 299.3166 126.6642 14.62634509986564"}}, "geometry": {"type": "Point", "coordinates": [-49.230882120364264, 66.7777031209144]}}, {"type": "Feature", "properties": {"norad_id": 29804, "name": "FENGYUN 1C DEB", "group": "fengyun-1c-debris", "lat": 65.08875789198486, "lon": -152.35022782102058, "alt_km": 933.3137456532777, "timestamp": "2025-12-26T08:37:54.851755+00:00", "meta": {"OBJECT_NAME": "FENGYUN 1C DEB", "OBJECT_ID": "1999-025CW", "EPOCH": "2025-12-25T23:48:10.937664", "MEAN_MOTION": 14.04323389, "ECCENTRICITY": 0.00970349, "INCLINATION": 98.8048, "RA_OF_ASC_NODE": 7.7979, "ARG_OF_PERICENTER": 264.408, "MEAN_ANOMALY": 150.7466, "EPHEMERIS_TYPE": 0, "CLASSIFICATION_TYPE": "U", "NORAD_CAT_ID": 29804, "ELEMENT_SET_NO": 999, "REV_AT_EPOCH": 97080, "BSTAR": -2.4457357e-05, "MEAN_MOTION_DOT": -8.4e-07, "MEAN_MOTION_DDOT": 0}, "tle": {"line1": "1 29804U 99025CW  25359.99179326 -.00000084  00000+0 -24457-4 0  9997", "line2": "2 29804  98.8048   7.7979 0097034 264.4080 150.7466 14.04323389970808"}}, "geometry": {"type": "Point", "coordinates": [-152.35022782102058, 65.08875789198486]}}, {"type": "Feature", "properties": {"norad_id": 29805, "name": "FENGYUN 1C DEB", "group": "fengyun-1c-debris", "lat": 15.28590280691479, "lon": -125.93403046809856, "alt_km": 869.7157818406695, "timestamp": "2025-12-26T08:37:54.851765+00:00", "meta": {"OBJECT_NAME": "FENGYUN 1C DEB", "OBJECT_ID": "1999-025CX", "EPOCH": "2025-12-22T09:21:33.026976", "MEAN_MOTION": 13.72660525, "ECCENTRICITY": 0.01883468, "INCLINATION": 99.4536, "RA_OF_ASC_NODE": 47.5382, "ARG_OF_PERICENTER": 204.6188, "MEAN_ANOMALY": 154.588, "EPHEMERIS_TYPE": 0, "CLASSIFICATION_TYPE": "U", "NORAD_CAT_ID": 29805, "ELEMENT_SET_NO": 999, "REV_AT_EPOCH": 94835, "BSTAR": 0.00016344227, "MEAN_MOTION_DOT": 1.26e-06, "MEAN_MOTION_DDOT": 0}, "tle": {"line1": "1 29805U 99025CX  25356.38996559  .00000126  00000+0  16344-3 0  9993", "line2": "2 29805  99.4536  47.5382 0188346 204.6188 154.5880 13.72660525948357"}}, "geometry": {"type": "Point", "coordinates": [-125.93403046809856, 15.28590280691479]}}, {"type": "Feature", "properties": {"norad_id": 29806, "name": "FENGYUN 1C DEB", "group": "fengyun-1c-debris", "lat": 40.81845492382491, "lon": -156.62700834514987, "alt_km": 843.4721839738177, "timestamp": "2025-12-26T08:37:54.851775+00:00", "meta": {"OBJECT_NAME": "FENGYUN 1C DEB", "OBJECT_ID": "1999-025CY", "EPOCH": "2025-12-25T23:44:59.531424", "MEAN_MOTION": 14.1203138, "ECCENTRICITY": 0.00280202, "INCLINATION": 98.7123, "RA_OF_ASC_NODE": 15.4026, "ARG_OF_PERICENTER": 213.4796, "MEAN_ANOMALY": 205.1423, "EPHEMERIS_TYPE": 0, "CLASSIFICATION_TYPE": "U", "NORAD_CAT_ID": 29806, "ELEMENT_SET_NO": 999, "REV_AT_EPOCH": 97326, "BSTAR": 0.00051177105, "MEAN_MOTION_DOT": 8.98e-06, "MEAN_MOTION_DDOT": 0}, "tle": {"line1": "1 29806U 99025CY  25359.98957791  .00000898  00000+0  51177-3 0  9997", "line2": "2 29806  98.7123  15.4026 0028020 213.4796 205.1423 14.12031380973266"}}, "geometry": {"type": "Point", "coordinates": [-156.62700834514987, 40.81845492382491]}}, {"type": "Feature", "properties": {"norad_id": 29807, "name": "FENGYUN 1C DEB", "group": "fengyun-1c-debris", "lat": 38.388479400914036, "lon": -2.4269549423419656, "alt_km": 876.2659260938644, "timestamp": "2025-12-26T08:37:54.851784+00:00", "meta": {"OBJECT_NAME": "FENGYUN 1C DEB", "OBJECT_ID": "1999-025CZ", "EPOCH": "2025-12-25T22:13:11.484768", "MEAN_MOTION": 14.08669797, "ECCENTRICITY": 0.00790667, "INCLINATION": 98.7549, "RA_OF_ASC_NODE": 4.1644, "ARG_OF_PERICENTER": 294.3478, "MEAN_ANOMALY": 64.9453, "EPHEMERIS_TYPE": 0, "CLASSIFICATION_TYPE": "U", "NORAD_CAT_ID": 29807, "ELEMENT_SET_NO": 999, "REV_AT_EPOCH": 97280, "BSTAR": 0.0002313185, "MEAN_MOTION_DOT": 3.66e-06, "MEAN_MOTION_DDOT": 0}, "tle": {"line1": "1 29807U 99025CZ  25359.92582737  .00000366  00000+0  23132-3 0  9996", "line2": "2 29807  98.7549   4.1644 0079066 294.3478  64.9453 14.08669797972808"}}, "geometry": {"type": "Point", "coordinates": [-2.4269549423419656, 38.388479400914036]}}]}